[
    {
        "Altitude(m)": 607911.0124376805,
        "Argument of Periapsis(deg)": 0.0,
        "Eccentricity": 0.0,
        "Inclination(deg)": 60.0,
        "Latitude(deg)": -14.29296339663094,
        "Longitude(deg)": -156.55737352662237,
        "Mean Anomaly(deg)": 196.36359999999996,
        "RAAN(deg)": 114.99999999999999,
        "Satellite Name": "Test1 518",
        "Satellite Number": 518,
        "Semi-Major Axis(m)": 6980739.136638005,
        "Time(s)": 0
    },
    {
        "Altitude(m)": 608060.2462246777,
        "Argument of Periapsis(deg)": 0.00010418945913296404,
        "Eccentricity": 0.0,
        "Inclination(deg)": 60.0,
        "Latitude(deg)": -14.826625218167313,
        "Longitude(deg)": -156.2687648823708,
        "Mean Anomaly(deg)": 196.9837061454618,
        "RAAN(deg)": 114.99957995086024,
        "Satellite Name": "Test1 518",
        "Satellite Number": 518,
        "Semi-Major Axis(m)": 6980739.136638005,
        "Time(s)": 10
    }
]